CUTE-1 (CO-55)          
1 27844U 03031E   26185.73961448  .00000442  00000+0  21011-3 0  9993
2 27844  98.6737 194.0777 0010516 129.7528 230.4579 14.24347463194179
CUBESAT XI-IV (CO-57)   
1 27848U 03031J   26185.94773638  .00000336  00000+0  16664-3 0  9992
2 27848  98.6769 193.9817 0010102 146.4963 213.6856 14.23630898193908
CUBESAT XI-V            
1 28895U 05043F   26185.38895324  .00001770  00000+0  28553-3 0  9998
2 28895  98.3005 341.3738 0014782 147.1004 213.1126 14.72680865104285
CUTE-1.7+APD II (CO-65) 
1 32785U 08021C   26185.88114395  .00008623  00000+0  53961-3 0  9992
2 32785  97.8291 167.6702 0007867 340.9032  19.1900 15.09633593987863
CANX-2                  
1 32790U 08021H   26185.89923995  .00006693  00000+0  46613-3 0  9994
2 32790  97.8643 166.0228 0009868 353.0053   7.1034 15.05751261987478
SEEDS II (CO-66)        
1 32791U 08021J   26185.43263930  .00026699  00000+0  82865-3 0  9998
2 32791  97.7524 184.1606 0001728 182.8998 177.2234 15.33363820989935
SWISSCUBE               
1 35932U 09051B   26185.47808840  .00001528  00000+0  31098-3 0  9997
2 35932  98.4021  93.6669 0007217 148.5860 211.5774 14.62517748891680
BEESAT-1                
1 35933U 09051C   26185.01738541  .00001005  00000+0  21142-3 0  9997
2 35933  98.3948  92.7981 0005397 160.6033 199.5374 14.61748287891649
ITUPSAT1                
1 35935U 09051E   26185.70814032  .00001186  00000+0  25471-3 0  9994
2 35935  98.4031  92.6727 0007316 174.2685 185.8600 14.60469280891292
TISAT 1                 
1 36799U 10035E   26185.29489229  .00030047  00000+0  96087-3 0  9996
2 36799  98.0712 133.3699 0003634 140.6786 219.4718 15.32381693870328
AEROCUBE 4.5A           
1 38767U 12048K   26180.81601320  .02026816  74244-5  11805-2 0  9992
2 38767  64.6148 340.0554 0018867 267.4936  92.4076 16.17962819374686
STRAND-1                
1 39090U 13009E   26185.73988565  .00000445  00000+0  16398-3 0  9999
2 39090  98.3930   5.5427 0008783 170.5824 189.5529 14.37174961699580
BRITE-AUSTRIA           
1 39091U 13009F   26185.76036508  .00000282  00000+0  11034-3 0  9995
2 39091  98.4004   4.7618 0010100 180.9237 179.1932 14.36549830699578
POPACS 2                
1 39269U 13055E   26185.82184007  .00027129 -75250-6  44971-3 0  9990
2 39269  80.9915 124.0034 0415832 137.1605 226.2823 14.91720341665849
POPACS 3                
1 39270U 13055F   26185.50184854  .00015835  00000+0  37473-3 0  9990
2 39270  80.9986 210.4099 0550178  17.2906 344.6220 14.56459954641070
ZACUBE-1 (TSHEPISOSAT)  
1 39417U 13066B   26185.87051757  .00005340  00000+0  41178-3 0  9997
2 39417  97.8034 148.2964 0043230 188.3857 171.6650 15.01293841683381
WNISAT-1                
1 39423U 13066H   26185.36754139  .00001519  00000+0  28336-3 0  9997
2 39423  97.7224 333.3061 0163106 177.3024 182.9095 14.58100925669239
TRITON-1                
1 39427U 13066M   26185.98859774  .00003916  00000+0  46932-3 0  9995
2 39427  97.8232  95.3899 0089837 175.2428 184.9660 14.81771386676723
GOMX-1                  
1 39430U 13066Q   26185.82167941  .00001392  00000+0  21412-3 0  9992
2 39430  97.6469  25.1709 0129140  21.4940 339.1620 14.69518650672502
CUBEBUG-2 (LO-74)       
1 39440U 13066AA  26185.81362705  .00007924  00000+0  72717-3 0  9998
2 39440  97.8913 134.8681 0056384 330.7815  29.0254 14.93919406679621
NEE-02 KRYSAOR          
1 39441U 13066AB  26185.77603257  .00004312  00000+0  47219-3 0  9991
2 39441  97.8891 124.8660 0066398  13.4769 346.8201 14.86707892678810
FUNCUBE-1 (AO-73)       
1 39444U 13066AE  26185.88720520  .00011803  00000+0  72371-3 0  9999
2 39444  97.8283 157.7053 0037405 141.4256 218.9657 15.09718097682330
UWE-3                   
1 39446U 13066AG  26185.86074106  .00005022  00000+0  43020-3 0  9996
2 39446  97.8705 142.0564 0047342 260.6060  98.9807 14.97156601680225
BRITE-CA1 (TORONTO)     
1 40020U 14033L   26185.63533524  .00001450  00000+0  22478-3 0  9995
2 40020  97.9761 314.2438 0077706 220.2855 139.2579 14.72709042644784
DUCHIFAT-1              
1 40021U 14033M   26184.69623055  .00145426  00000+0  12812-2 0  9992
2 40021  98.0432 246.2208 0000321 267.7040  92.4182 15.68277261658337
QB50P1                  
1 40025U 14033R   26185.48198915  .00015142  00000+0  73515-3 0  9995
2 40025  98.0964 197.8434 0009613 156.7377 203.4292 15.18541175655657
QB50P2                  
1 40032U 14033Y   26185.92988667  .00012504  00000+0  66464-3 0  9997
2 40032  98.0760 183.9176 0009250 112.0919 248.1295 15.15408742655357
PERSEUS-M2              
1 40037U 14033AD  26185.92726189  .00001689  00000+0  15769-3 0  9995
2 40037  97.9968 136.8303 0010688 237.8427 122.1756 14.95561466653436
